[{"OBJECT_NAME":"COSMOS 2438","OBJECT_ID":"2008-025C","EPOCH":"2026-03-09T23:32:47.004576","MEAN_MOTION":12.43366861,"ECCENTRICITY":0.0021501,"INCLINATION":82.4991,"RA_OF_ASC_NODE":54.5623,"ARG_OF_PERICENTER":157.9735,"MEAN_ANOMALY":202.2273,"EPHEMERIS_TYPE":0,"CLASSIFICATION_TYPE":"U","NORAD_CAT_ID":32955,"ELEMENT_SET_NO":999,"REV_AT_EPOCH":80750,"BSTAR":0.00024465837,"MEAN_MOTION_DOT":4.4e-7,"MEAN_MOTION_DDOT":0},{"OBJECT_NAME":"COSMOS 1858","OBJECT_ID":"1987-051G","EPOCH":"2026-03-09T18:42:03.007008","MEAN_MOTION":12.56039258,"ECCENTRICITY":0.00489914,"INCLINATION":74.0021,"RA_OF_ASC_NODE":222.5898,"ARG_OF_PERICENTER":247.7283,"MEAN_ANOMALY":218.416,"EPHEMERIS_TYPE":0,"CLASSIFICATION_TYPE":"U","NORAD_CAT_ID":18119,"ELEMENT_SET_NO":999,"REV_AT_EPOCH":77580,"BSTAR":0.00012833198,"MEAN_MOTION_DOT":5.0e-8,"MEAN_MOTION_DDOT":0}]
